[{"OBJECT_NAME":"ONEWEB-0695","OBJECT_ID":"2024-188J","EPOCH":"2025-11-19T05:22:11.745984","MEAN_MOTION":13.11414194,"ECCENTRICITY":0.0001573,"INCLINATION":87.8862,"RA_OF_ASC_NODE":62.8947,"ARG_OF_PERICENTER":82.7812,"MEAN_ANOMALY":277.3495,"EPHEMERIS_TYPE":0,"CLASSIFICATION_TYPE":"U","NORAD_CAT_ID":61602,"ELEMENT_SET_NO":999,"REV_AT_EPOCH":5694,"BSTAR":-0.0010318919,"MEAN_MOTION_DOT":-3.53e-6,"MEAN_MOTION_DDOT":0},{"OBJECT_NAME":"ONEWEB-0697","OBJECT_ID":"2024-188K","EPOCH":"2025-11-19T06:08:37.129920","MEAN_MOTION":13.11419091,"ECCENTRICITY":0.00021407,"INCLINATION":87.8861,"RA_OF_ASC_NODE":62.8784,"ARG_OF_PERICENTER":82.2168,"MEAN_ANOMALY":277.9203,"EPHEMERIS_TYPE":0,"CLASSIFICATION_TYPE":"U","NORAD_CAT_ID":61603,"ELEMENT_SET_NO":999,"REV_AT_EPOCH":5693,"BSTAR":0.00056144406,"MEAN_MOTION_DOT":2.12e-6,"MEAN_MOTION_DDOT":0},{"OBJECT_NAME":"ONEWEB-0698","OBJECT_ID":"2024-188L","EPOCH":"2025-11-19T05:36:51.591744","MEAN_MOTION":13.11416598,"ECCENTRICITY":0.00027058,"INCLINATION":87.8867,"RA_OF_ASC_NODE":62.8981,"ARG_OF_PERICENTER":94.3072,"MEAN_ANOMALY":265.8365,"EPHEMERIS_TYPE":0,"CLASSIFICATION_TYPE":"U","NORAD_CAT_ID":61604,"ELEMENT_SET_NO":999,"REV_AT_EPOCH":5695,"BSTAR":-0.0013039766,"MEAN_MOTION_DOT":-4.49e-6,"MEAN_MOTION_DDOT":0},{"OBJECT_NAME":"ONEWEB-0699","OBJECT_ID":"2024-188M","EPOCH":"2025-11-19T05:34:38.296416","MEAN_MOTION":13.10376438,"ECCENTRICITY":0.00020415,"INCLINATION":87.8814,"RA_OF_ASC_NODE":78.1111,"ARG_OF_PERICENTER":84.8268,"MEAN_ANOMALY":275.3093,"EPHEMERIS_TYPE":0,"CLASSIFICATION_TYPE":"U","NORAD_CAT_ID":61605,"ELEMENT_SET_NO":999,"REV_AT_EPOCH":5581,"BSTAR":0.0019345713,"MEAN_MOTION_DOT":6.88e-6,"MEAN_MOTION_DDOT":0},{"OBJECT_NAME":"ONEWEB-0700","OBJECT_ID":"2024-188N","EPOCH":"2025-11-19T05:37:02.695872","MEAN_MOTION":13.10374925,"ECCENTRICITY":0.00015439,"INCLINATION":87.8816,"RA_OF_ASC_NODE":77.9947,"ARG_OF_PERICENTER":74.3147,"MEAN_ANOMALY":285.8151,"EPHEMERIS_TYPE":0,"CLASSIFICATION_TYPE":"U","NORAD_CAT_ID":61606,"ELEMENT_SET_NO":999,"REV_AT_EPOCH":5580,"BSTAR":0.0017744739,"MEAN_MOTION_DOT":6.32e-6,"MEAN_MOTION_DDOT":0},{"OBJECT_NAME":"ONEWEB-0701","OBJECT_ID":"2024-188P","EPOCH":"2025-11-19T06:00:55.973376","MEAN_MOTION":13.10368999,"ECCENTRICITY":0.00021161,"INCLINATION":87.8806,"RA_OF_ASC_NODE":78.1093,"ARG_OF_PERICENTER":81.3178,"MEAN_ANOMALY":278.8189,"EPHEMERIS_TYPE":0,"CLASSIFICATION_TYPE":"U","NORAD_CAT_ID":61607,"ELEMENT_SET_NO":999,"REV_AT_EPOCH":5581,"BSTAR":0.00093509116,"MEAN_MOTION_DOT":3.39e-6,"MEAN_MOTION_DDOT":0},{"OBJECT_NAME":"ONEWEB-0702","OBJECT_ID":"2024-188Q","EPOCH":"2025-11-19T06:42:47.849472","MEAN_MOTION":13.11418592,"ECCENTRICITY":0.00018805,"INCLINATION":87.8818,"RA_OF_ASC_NODE":62.7835,"ARG_OF_PERICENTER":74.1611,"MEAN_ANOMALY":285.9724,"EPHEMERIS_TYPE":0,"CLASSIFICATION_TYPE":"U","NORAD_CAT_ID":61608,"ELEMENT_SET_NO":999,"REV_AT_EPOCH":5697,"BSTAR":0.0021957759,"MEAN_MOTION_DOT":7.91e-6,"MEAN_MOTION_DDOT":0},{"OBJECT_NAME":"ONEWEB-0704","OBJECT_ID":"2024-188R","EPOCH":"2025-11-19T02:04:18.818688","MEAN_MOTION":13.10372021,"ECCENTRICITY":0.00018677,"INCLINATION":87.8821,"RA_OF_ASC_NODE":78.1036,"ARG_OF_PERICENTER":71.3959,"MEAN_ANOMALY":288.7371,"EPHEMERIS_TYPE":0,"CLASSIFICATION_TYPE":"U","NORAD_CAT_ID":61609,"ELEMENT_SET_NO":999,"REV_AT_EPOCH":5577,"BSTAR":0.0017380737,"MEAN_MOTION_DOT":6.19e-6,"MEAN_MOTION_DDOT":0},{"OBJECT_NAME":"ONEWEB-0705","OBJECT_ID":"2024-188S","EPOCH":"2025-11-19T05:51:24.281856","MEAN_MOTION":13.10384556,"ECCENTRICITY":9.366e-5,"INCLINATION":87.881,"RA_OF_ASC_NODE":78.0973,"ARG_OF_PERICENTER":56.6998,"MEAN_ANOMALY":303.4219,"EPHEMERIS_TYPE":0,"CLASSIFICATION_TYPE":"U","NORAD_CAT_ID":61610,"ELEMENT_SET_NO":999,"REV_AT_EPOCH":4796,"BSTAR":0.0082799606,"MEAN_MOTION_DOT":2.904e-5,"MEAN_MOTION_DDOT":0},{"OBJECT_NAME":"ONEWEB-0706","OBJECT_ID":"2024-188T","EPOCH":"2025-11-19T05:29:51.692064","MEAN_MOTION":13.10377112,"ECCENTRICITY":0.00015471,"INCLINATION":87.8804,"RA_OF_ASC_NODE":78.1231,"ARG_OF_PERICENTER":77.1348,"MEAN_ANOMALY":282.9952,"EPHEMERIS_TYPE":0,"CLASSIFICATION_TYPE":"U","NORAD_CAT_ID":61611,"ELEMENT_SET_NO":999,"REV_AT_EPOCH":5588,"BSTAR":0.0017112809,"MEAN_MOTION_DOT":6.1e-6,"MEAN_MOTION_DDOT":0},{"OBJECT_NAME":"ONEWEB-0707","OBJECT_ID":"2024-188U","EPOCH":"2025-11-19T05:39:25.389792","MEAN_MOTION":13.10382346,"ECCENTRICITY":0.0001584,"INCLINATION":87.8831,"RA_OF_ASC_NODE":78.0985,"ARG_OF_PERICENTER":69.7522,"MEAN_ANOMALY":290.3776,"EPHEMERIS_TYPE":0,"CLASSIFICATION_TYPE":"U","NORAD_CAT_ID":61612,"ELEMENT_SET_NO":999,"REV_AT_EPOCH":5582,"BSTAR":0.0044372854,"MEAN_MOTION_DOT":1.562e-5,"MEAN_MOTION_DDOT":0},{"OBJECT_NAME":"ONEWEB-0708","OBJECT_ID":"2024-188V","EPOCH":"2025-11-19T06:05:43.913472","MEAN_MOTION":13.1036998,"ECCENTRICITY":9.662e-5,"INCLINATION":87.8801,"RA_OF_ASC_NODE":78.1307,"ARG_OF_PERICENTER":101.2877,"MEAN_ANOMALY":258.8359,"EPHEMERIS_TYPE":0,"CLASSIFICATION_TYPE":"U","NORAD_CAT_ID":61613,"ELEMENT_SET_NO":999,"REV_AT_EPOCH":5580,"BSTAR":0.0004728738,"MEAN_MOTION_DOT":1.78e-6,"MEAN_MOTION_DDOT":0}]
