ONEWEB-0695             
1 61602U 24188J   25323.22374706 -.00000353  00000+0 -10319-2 0  9992
2 61602  87.8862  62.8947 0001573  82.7812 277.3495 13.11414194 56946
ONEWEB-0697             
1 61603U 24188K   25323.25598530  .00000212  00000+0  56144-3 0  9998
2 61603  87.8861  62.8784 0002140  82.2168 277.9203 13.11419091 56938
ONEWEB-0698             
1 61604U 24188L   25323.23393046 -.00000449  00000+0 -13040-2 0  9993
2 61604  87.8867  62.8981 0002705  94.3072 265.8365 13.11416598 56955
ONEWEB-0699             
1 61605U 24188M   25323.23238769  .00000688  00000+0  19346-2 0  9992
2 61605  87.8814  78.1111 0002041  84.8268 275.3093 13.10376438 55812
ONEWEB-0700             
1 61606U 24188N   25323.23405898  .00000632  00000+0  17745-2 0  9992
2 61606  87.8816  77.9947 0001543  74.3147 285.8151 13.10374925 55804
ONEWEB-0701             
1 61607U 24188P   25323.25064784  .00000339  00000+0  93509-3 0  9997
2 61607  87.8806  78.1093 0002116  81.3178 278.8189 13.10368999 55816
ONEWEB-0702             
1 61608U 24188Q   25323.27972048  .00000791  00000+0  21958-2 0  9991
2 61608  87.8818  62.7835 0001880  74.1611 285.9724 13.11418592 56970
ONEWEB-0704             
1 61609U 24188R   25323.08632892  .00000619  00000+0  17381-2 0  9995
2 61609  87.8821  78.1036 0001867  71.3959 288.7371 13.10372021 55779
ONEWEB-0705             
1 61610U 24188S   25323.24403104  .00002904  00000+0  82800-2 0  9994
2 61610  87.8810  78.0973 0000936  56.6998 303.4219 13.10384556 47967
ONEWEB-0706             
1 61611U 24188T   25323.22907051  .00000610  00000+0  17113-2 0  9990
2 61611  87.8804  78.1231 0001547  77.1348 282.9952 13.10377112 55880
ONEWEB-0707             
1 61612U 24188U   25323.23571053  .00001562  00000+0  44373-2 0  9996
2 61612  87.8831  78.0985 0001584  69.7522 290.3776 13.10382346 55824
ONEWEB-0708             
1 61613U 24188V   25323.25398048  .00000178  00000+0  47287-3 0  9990
2 61613  87.8801  78.1307 0000966 101.2877 258.8359 13.10369980 55802
